YAM-7                   
1 60504U 24149AN  26068.71799904  .00009009  00000+0  30984-3 0  9997
2 60504  97.3828 149.4631 0001973 296.5121  63.5918 15.30304554 86835
STARLINK-33587          
1 63469U 25070K   26068.52974401  .00032748  00000+0  11938-2 0  9993
2 63469  43.0004 260.5600 0001797 266.7226  93.3420 15.27591812 52958
