[{"OBJECT_NAME":"YAM-7","OBJECT_ID":"2024-149AN","EPOCH":"2026-03-09T17:13:55.117920","MEAN_MOTION":15.30304554,"ECCENTRICITY":0.00019733,"INCLINATION":97.3828,"RA_OF_ASC_NODE":149.4631,"ARG_OF_PERICENTER":296.5121,"MEAN_ANOMALY":63.5918,"EPHEMERIS_TYPE":0,"CLASSIFICATION_TYPE":"U","NORAD_CAT_ID":60504,"ELEMENT_SET_NO":999,"REV_AT_EPOCH":8683,"BSTAR":0.00030984439,"MEAN_MOTION_DOT":9.009e-5,"MEAN_MOTION_DDOT":0},{"OBJECT_NAME":"STARLINK-33587","OBJECT_ID":"2025-070K","EPOCH":"2026-03-09T12:42:49.882464","MEAN_MOTION":15.27591812,"ECCENTRICITY":0.00017975,"INCLINATION":43.0004,"RA_OF_ASC_NODE":260.56,"ARG_OF_PERICENTER":266.7226,"MEAN_ANOMALY":93.342,"EPHEMERIS_TYPE":0,"CLASSIFICATION_TYPE":"U","NORAD_CAT_ID":63469,"ELEMENT_SET_NO":999,"REV_AT_EPOCH":5295,"BSTAR":0.0011938449,"MEAN_MOTION_DOT":0.00032748,"MEAN_MOTION_DDOT":0}]
